STARLINK-5439           
1 54783U 22175AB  23334.52878616  .00000454  00000+0  46645-4 0  9993
2 54783  53.2180 155.8449 0001554 107.6438 252.4724 15.08842034 52646
STARLINK-5442           
1 54784U 22175AC  23335.50444249 -.00000180  00000+0  67807-5 0  9995
2 54784  53.2171 166.2320 0001515 109.6237 250.4919 15.08825864 52586
STARLINK-5440           
1 54785U 22175AD  23334.70909302  .00003468  00000+0  23587-3 0  9999
2 54785  53.2170 114.9168 0001294  87.6604 272.4536 15.08841305 53233
STARLINK-5438           
1 54786U 22175AE  23334.81587250 -.00001176  00000+0 -55827-4 0  9995
2 54786  53.2163 154.7817 0001317  78.4943 281.6197 15.08825989 52682
STARLINK-5441           
1 54787U 22175AF  23334.83833501 -.00001213  00000+0 -58099-4 0  9997
2 54787  53.2166 169.1886 0001574  92.8171 267.3002 15.08841024 52482
STARLINK-5399           
1 54788U 22175AG  23334.78269135  .00001060  00000+0  84697-4 0  9999
2 54788  53.2172 154.5876 0001468  86.6731 273.4429 15.08846325 52684
STARLINK-5446           
1 54789U 22175AH  23334.78222174  .00000298  00000+0  36817-4 0  9995
2 54789  53.2162 139.4860 0001224  88.9039 271.2094 15.08839588 52895
STARLINK-5445           
1 54790U 22175AJ  23335.50396097  .00001324  00000+0  10124-3 0  9997
2 54790  53.2171 151.2711 0001344  76.6423 283.4718 15.08839671 52798
STARLINK-5425           
1 54791U 22175AK  23334.52510081  .00001022  00000+0  82295-4 0  9994
2 54791  53.2171 155.8221 0001481  90.9302 269.1860 15.08842591 52640
STARLINK-5431           
1 54792U 22175AL  23334.76474567  .00009611  00000+0  62105-3 0  9998
2 54792  53.2147 169.4357 0001215  74.5491 285.5635 15.08843605 52477
STARLINK-5433           
1 54793U 22175AM  23334.79098999  .00000901  00000+0  74661-4 0  9997
2 54793  53.2163 144.6906 0001283  85.0738 275.0400 15.08840709 52822
STARLINK-5392           
1 54794U 22175AN  23334.82411956  .00000052  00000+0  20041-4 0  9994
2 54794  53.2161 160.0785 0001143  89.6785 270.4339 15.12106857 52616
STARLINK-5436           
1 54795U 22175AP  23334.77900675  .00000655  00000+0  59236-4 0  9997
2 54795  53.2157 154.5620 0001276  96.4042 263.7095 15.08842406 52680
STARLINK-5415           
1 54796U 22175AQ  23335.50027921  .00000930  00000+0  76528-4 0  9993
2 54796  53.2158 151.2466 0001253  88.5356 271.5780 15.08841671 52792
STARLINK-5435           
1 54797U 22175AR  23334.78411096  .00000963  00000+0  78614-4 0  9997
2 54797  53.2157 169.5545 0001248  87.6042 272.5093 15.08838574 52479
STARLINK-5420           
1 54798U 22175AS  23335.49751777 -.00000750  00000+0 -29040-4 0  9995
2 54798  53.2165 141.2760 0001535 106.1210 253.9951 15.08844080 52934
STARLINK-5421           
1 54799U 22175AT  23334.78730588  .00000383  00000+0  42181-4 0  9995
2 54799  53.2171 144.6603 0001293  99.0046 261.1093 15.08840206 52825
STARLINK-5428           
1 54800U 22175AU  23334.84294253  .00000463  00000+0  47146-4 0  9994
2 54800  53.2166 159.2190 0001353  92.0939 268.0208 15.08844128 52625
STARLINK-5429           
1 54801U 22175AV  23334.82359671  .00000718  00000+0  63172-4 0  9999
2 54801  53.2147 169.0901 0001438  96.5050 263.6106 15.08843643 52484
STARLINK-5426           
1 54802U 22175AW  23335.40824540  .00000194  00000+0  30293-4 0  9993
2 54802  53.2169 111.3686 0001330  88.7542 271.3602 15.08834796 53341
STARLINK-5430           
1 54803U 22175AX  23334.76840925  .00000873  00000+0  72918-4 0  9991
2 54803  53.2172 169.4436 0001322  93.9672 266.1471 15.08845711 52474
STARLINK-5422           
1 54804U 22175AY  23334.77258227 -.00001928  00000+0 -10304-3 0  9995
2 54804  53.2174 154.5175 0001676  62.7384 297.3779 15.08843496 52686
STARLINK-5417           
1 54805U 22175AZ  23334.50299584 -.00000242  00000+0  28804-5 0  9991
2 54805  53.2168 155.6853 0001525  74.7732 285.3429 15.08839948 52640
STARLINK-5412           
1 54806U 22175BA  23335.48553154  .00001023  00000+0  82329-4 0  9994
2 54806  53.2146 151.1547 0001332  92.0266 268.0878 15.08844360 52795
STARLINK-5410           
1 54807U 22175BB  23334.76058704  .00000747  00000+0  65016-4 0  9992
2 54807  53.2161 154.4482 0001261  89.3560 270.7577 15.08842717 52682
STARLINK-5413           
1 54808U 22175BC  23334.46946895  .00000667  00000+0  59979-4 0  9999
2 54808  53.2172 141.2964 0001572  71.5607 288.5556 15.08842613 52841
STARLINK-5414           
1 54809U 22175BD  23334.81945144  .00002451  00000+0  17197-3 0  9993
2 54809  53.2153 154.1089 0001396 131.1989 228.9123 15.08857907 52695
STARLINK-5408           
1 54810U 22175BE  23334.50898114  .00000137  00000+0  26715-4 0  9991
2 54810  53.2159 150.7190 0001393  70.1087 290.0055 15.08839013 52711
STARLINK-5424           
1 54811U 22175BF  23334.80069199  .00001840  00000+0  13363-3 0  9994
2 54811  53.2167 149.6804 0001275  91.5567 268.5571 15.08841677 52755
STARLINK-5382           
1 54820U 22177A   23335.45488171  .00015602  00000+0  11670-2 0  9992
2 54820  43.0034 319.4447 0000827 237.1404 122.9359 15.02551170 51234
STARLINK-5385           
1 54821U 22177B   23335.11028791  .00018285  00000+0  13653-2 0  9997
2 54821  43.0034 321.1621 0000508 254.8653 105.2133 15.02530267 51189
STARLINK-5101           
1 54822U 22177C   23335.10473498  .00011351  00000+0  85389-3 0  9998
2 54822  43.0025 321.1171 0000908 226.9808 133.0958 15.02540799 51181
STARLINK-5106           
1 54823U 22177D   23335.11916728  .00009392  00000+0  70946-3 0  9993
2 54823  43.0039 321.2258 0000929 242.9526 117.1221 15.02531252 51182
STARLINK-4643           
1 54824U 22177E   23335.11583577  .00000679  00000+0  65344-4 0  9992
2 54824  43.0041 321.2013 0000945 237.4057 122.6694 15.02534659 51180
STARLINK-4801           
1 54825U 22177F   23335.37508369  .00000080  00000+0  20963-4 0  9991
2 54825  43.0045 319.7014 0001117 270.6165  89.4550 15.02534987 51229
STARLINK-5107           
1 54826U 22177G   23335.23990959  .00010487  00000+0  79016-3 0  9991
2 54826  43.0020 320.4078 0001285 183.1846 176.8988 15.02540015 51205
STARLINK-5383           
1 54827U 22177H   23335.09919851  .00007727  00000+0  58649-3 0  9990
2 54827  43.0034 321.0742 0001049 165.0500 195.0373 15.02531524 51183
STARLINK-5381           
1 54828U 22177J   23335.09585747  .00014041  00000+0  10525-2 0  9991
2 54828  43.0023 321.0490 0000579 260.8253  99.2524 15.02532462 51183
STARLINK-5380           
1 54829U 22177K   23335.44600331  .00023896  00000+0  17769-2 0  9993
2 54829  43.0035 319.3785 0001024 265.3095  94.7631 15.02559112 51230
STARLINK-5394           
1 54830U 22177L   23335.15678369  .00001439  00000+0  12154-3 0  9992
2 54830  43.0000 320.6437 0001055 203.8485 156.2308 15.02541168 51199
STARLINK-5395           
1 54831U 22177M   23335.16788541  .00014742  00000+0  11040-2 0  9991
2 54831  43.0034 320.7305 0001088 247.3868 112.6859 15.02539406 51195
STARLINK-5393           
1 54832U 22177N   23335.06626233  .00003500  00000+0  27406-3 0  9994
2 54832  43.0039 308.6885 0001164 232.2623 127.8114 15.02529842 51326
STARLINK-5391           
1 54833U 22177P   23335.15900349  .00016908  00000+0  12637-2 0  9993
2 54833  43.0041 320.6647 0001228 241.0860 118.9859 15.02535899 51193
STARLINK-5386           
1 54834U 22177Q   23335.15456575  .00013274  00000+0  99592-3 0  9990
2 54834  43.0030 320.6310 0000894 211.7627 148.3161 15.02531741 51197
STARLINK-5389           
1 54835U 22177R   23335.16011958  .00011569  00000+0  87037-3 0  9990
2 54835  43.0044 320.6738 0001007 240.8722 119.2020 15.02521937 51190
STARLINK-5384           
1 54836U 22177S   23334.41998646  .00022449  00000+0  16721-2 0  9996
2 54836  43.0036 324.5778 0001055 266.1134  93.9588 15.02524214 51086
STARLINK-5369           
1 54837U 22177T   23335.15345620  .00023652  00000+0  17604-2 0  9995
2 54837  43.0038 320.6218 0000628 268.3169  91.7601 15.02529177 51199
STARLINK-5372           
1 54838U 22177U   23335.14457450 -.00002741  00000+0 -18781-3 0  9996
2 54838  43.0037 320.5532 0001179 259.2165 100.8545 15.02549266 51194
STARLINK-5110           
1 54839U 22177V   23335.20550301  .00004621  00000+0  35693-3 0  9991
2 54839  43.0043 320.1513 0001082 237.0524 123.0214 15.02534419 51209
STARLINK-5368           
1 54840U 22177W   23335.07032482 -.00001656  00000+0 -10753-3 0  9990
2 54840  43.0040 320.8563 0001064 258.1343 101.9381 15.02535474 51182
STARLINK-4659           
1 54841U 22177X   23335.14790464  .00013487  00000+0  10117-2 0  9996
2 54841  43.0034 320.5784 0000953 215.4837 144.5942 15.02531519 51191
STARLINK-5387           
1 54842U 22177Y   23335.46253411  .00008718  00000+0  65956-3 0  9991
2 54842  43.0021 318.6413 0000797 277.1294  82.9458 15.02541658 51241
STARLINK-5304           
1 54843U 22177Z   23335.20883436  .00019102  00000+0  14254-2 0  9993
2 54843  43.0043 320.1763 0001044 236.2728 123.8015 15.02533421 51205
STARLINK-5388           
1 54844U 22177AA  23334.45981125  .00003239  00000+0  25463-3 0  9993
2 54844  43.0043 323.9906 0000656 274.6009  85.4759 15.02552751 51094
STARLINK-5082           
1 54845U 22177AB  23335.19995412  .00004358  00000+0  33747-3 0  9997
2 54845  43.0044 320.1092 0001049 227.4994 132.5760 15.02534294 51208
STARLINK-5360           
1 54846U 22177AC  23335.46031297  .00007601  00000+0  57698-3 0  9995
2 54846  43.0043 318.6228 0001046 254.1811 105.8916 15.02545842 51244
STARLINK-5061           
1 54847U 22177AD  23335.28691819  .00022333  00000+0  16634-2 0  9991
2 54847  43.0033 293.8892 0001526 261.0431  99.0239 15.02527245 51512
STARLINK-5432           
1 54848U 22177AE  23335.06071029  .00001940  00000+0  15862-3 0  9997
2 54848  43.0028 308.6350 0000615 207.2484 152.8326 15.02536129 51324
STARLINK-5434           
1 54849U 22177AF  23335.05701110 -.00000985  00000+0 -57887-4 0  9992
2 54849  43.0046 320.7493 0001106 265.4771  94.5945 15.02529033 51188
